COSMOS 2361             
1 25590U 98076A   24362.22372657  .00000102  00000+0  93006-4 0  9996
2 25590  82.9337 243.2443 0031795 158.1707 351.2906 13.73166474303005
COSMOS 2378             
1 26818U 01023A   24362.45000406  .00000108  00000+0  98536-4 0  9990
2 26818  82.9270 259.3821 0034252 101.7844  71.7664 13.74095075181121
COSMOS 2389             
1 27436U 02026A   24362.56196845  .00000116  00000+0  10510-3 0  9990
2 27436  82.9499 206.1538 0045584 318.4616  59.9773 13.75108408133368
COSMOS 2398             
1 27818U 03023A   24362.52999802  .00000120  00000+0  11429-3 0  9997
2 27818  82.9479 170.7759 0031451   7.9302  51.2315 13.72340241 80134
COSMOS 2407             
1 28380U 04028A   24362.60614586  .00000126  00000+0  11351-3 0  9990
2 28380  82.9611 112.2054 0038145 314.3787  55.9259 13.76261531 26074
COSMOS 2414             
1 28521U 05002A   24362.51592874  .00000137  00000+0  10113-3 0  9992
2 28521  82.9500  89.5493 0041285  60.9170 299.6118 13.87839515  9370
COSMOS 2429             
1 32052U 07038A   24362.37314855  .00000116  00000+0  10506-3 0  9995
2 32052  82.9801 241.5103 0037288 295.6669  64.0637 13.75099727867871
COSMOS 2454             
1 35635U 09039A   24362.31079084  .00000134  00000+0  96002-4 0  9990
2 35635  82.9562  74.3310 0019058 359.6454  74.4608 13.89866944782827
COSMOS 2463             
1 36519U 10017A   24362.54557782  .00000097  00000+0  90078-4 0  9996
2 36519  82.9609 283.9903 0036063 177.0430 356.2203 13.71603743734363
